{
  "norad_id": 64280,
  "name": "STARLINK-34359",
  "history": [
    {
      "epoch": "2026-04-12T23:31:22.469952Z",
      "apogee_km": 476.1693128091565,
      "perigee_km": 474.2531166483186,
      "latitude_deg": 5.493803206879687e-06,
      "longitude_deg": 123.56950349097148,
      "height_km": 476.1004777139604,
      "semi_major_axis_km": 6853.348214728738,
      "eccentricity": 0.0001398,
      "inclination_deg": 53.1616,
      "raan_deg": 317.5906,
      "arg_perigee_deg": 89.4733,
      "mean_anomaly_deg": 270.6428,
      "mean_motion_rev_day": 15.30201291
    },
    {
      "epoch": "2026-04-14T19:24:51.840576Z",
      "apogee_km": 475.68368087714043,
      "perigee_km": 474.7804068371597,
      "latitude_deg": -3.136062576783744e-05,
      "longitude_deg": 174.8977407126368,
      "height_km": 476.2300975801208,
      "semi_major_axis_km": 6853.369043857149,
      "eccentricity": 6.59e-05,
      "inclination_deg": 53.1584,
      "raan_deg": 309.0938,
      "arg_perigee_deg": 102.7035,
      "mean_anomaly_deg": 257.4039,
      "mean_motion_rev_day": 15.30194315
    },
    {
      "epoch": "2026-04-15T17:21:37.860768Z",
      "apogee_km": 476.05603509686716,
      "perigee_km": 474.4920866927705,
      "latitude_deg": -2.6348309233067046e-05,
      "longitude_deg": -159.44009960348976,
      "height_km": 476.20679459676523,
      "semi_major_axis_km": 6853.411060894819,
      "eccentricity": 0.0001141,
      "inclination_deg": 53.1589,
      "raan_deg": 304.849,
      "arg_perigee_deg": 92.5363,
      "mean_anomaly_deg": 267.5768,
      "mean_motion_rev_day": 15.30180243
    },
    {
      "epoch": "2026-04-16T20:00:32.612256Z",
      "apogee_km": 475.9961110450113,
      "perigee_km": 474.4486224999946,
      "latitude_deg": -6.762444353300186e-05,
      "longitude_deg": 154.57972383704688,
      "height_km": 476.16790143274676,
      "semi_major_axis_km": 6853.359366772503,
      "eccentricity": 0.0001129,
      "inclination_deg": 53.1583,
      "raan_deg": 299.6914,
      "arg_perigee_deg": 93.5151,
      "mean_anomaly_deg": 266.5978,
      "mean_motion_rev_day": 15.30197556
    },
    {
      "epoch": "2026-04-17T22:39:26.231904Z",
      "apogee_km": 475.91986681467733,
      "perigee_km": 474.40898798199396,
      "latitude_deg": -3.671011620434546e-05,
      "longitude_deg": 108.60402925548178,
      "height_km": 476.13541543662865,
      "semi_major_axis_km": 6853.301427398335,
      "eccentricity": 0.00011023,
      "inclination_deg": 53.1587,
      "raan_deg": 294.5335,
      "arg_perigee_deg": 95.5306,
      "mean_anomaly_deg": 264.582,
      "mean_motion_rev_day": 15.30216961
    },
    {
      "epoch": "2026-04-18T19:02:06.633312Z",
      "apogee_km": 476.57168777099105,
      "perigee_km": 473.60561170978326,
      "latitude_deg": -3.5264023380501494e-05,
      "longitude_deg": 158.15430101702708,
      "height_km": 476.2921380857245,
      "semi_major_axis_km": 6853.225649740387,
      "eccentricity": 0.0002164,
      "inclination_deg": 53.1598,
      "raan_deg": 290.589,
      "arg_perigee_deg": 101.9324,
      "mean_anomaly_deg": 258.1919,
      "mean_motion_rev_day": 15.30242341
    },
    {
      "epoch": "2026-04-19T18:32:54.653856Z",
      "apogee_km": 475.7872846923565,
      "perigee_km": 474.6139932885617,
      "latitude_deg": -2.4529208573076746e-06,
      "longitude_deg": 159.9363803678968,
      "height_km": 475.98942482518925,
      "semi_major_axis_km": 6853.337638990459,
      "eccentricity": 8.56e-05,
      "inclination_deg": 53.1581,
      "raan_deg": 286.0368,
      "arg_perigee_deg": 79.226,
      "mean_anomaly_deg": 280.8837,
      "mean_motion_rev_day": 15.30204833
    },
    {
      "epoch": "2026-04-20T11:47:30.111936Z",
      "apogee_km": 476.2652322814738,
      "perigee_km": 474.10780603764215,
      "latitude_deg": 7.971583821120818e-05,
      "longitude_deg": -102.75835413427953,
      "height_km": 475.9234421642921,
      "semi_major_axis_km": 6853.323519159558,
      "eccentricity": 0.0001574,
      "inclination_deg": 53.1576,
      "raan_deg": 282.6979,
      "arg_perigee_deg": 81.4438,
      "mean_anomaly_deg": 278.6742,
      "mean_motion_rev_day": 15.30209562
    },
    {
      "epoch": "2026-04-21T20:42:37.035360Z",
      "apogee_km": 476.0873550311235,
      "perigee_km": 474.4332190619216,
      "latitude_deg": -5.622032168534398e-05,
      "longitude_deg": 115.74157515182877,
      "height_km": 476.10475352317775,
      "semi_major_axis_km": 6853.397287046522,
      "eccentricity": 0.00012068,
      "inclination_deg": 53.1601,
      "raan_deg": 276.3287,
      "arg_perigee_deg": 86.2764,
      "mean_anomaly_deg": 273.8374,
      "mean_motion_rev_day": 15.30184856
    },
    {
      "epoch": "2026-04-24T19:15:00.321120Z",
      "apogee_km": 476.199367312297,
      "perigee_km": 474.19134093253797,
      "latitude_deg": 2.070874089785154e-05,
      "longitude_deg": 121.09503646549119,
      "height_km": 476.3578464514588,
      "semi_major_axis_km": 6853.332354122417,
      "eccentricity": 0.0001465,
      "inclination_deg": 53.1605,
      "raan_deg": 262.6761,
      "arg_perigee_deg": 105.2784,
      "mean_anomaly_deg": 254.8379,
      "mean_motion_rev_day": 15.30206603
    },
    {
      "epoch": "2026-04-25T18:45:48.443616Z",
      "apogee_km": 475.86876861168275,
      "perigee_km": 474.48576979215704,
      "latitude_deg": -2.5474109303152237e-05,
      "longitude_deg": 122.87793175030143,
      "height_km": 476.05827909111326,
      "semi_major_axis_km": 6853.314269201919,
      "eccentricity": 0.0001009,
      "inclination_deg": 53.1607,
      "raan_deg": 258.1252,
      "arg_perigee_deg": 88.5496,
      "mean_anomaly_deg": 271.562,
      "mean_motion_rev_day": 15.3021266
    },
    {
      "epoch": "2026-04-26T16:42:33.465024Z",
      "apogee_km": 475.82494467147626,
      "perigee_km": 474.5254196154983,
      "latitude_deg": 5.4818086111212286e-05,
      "longitude_deg": 148.54311915347247,
      "height_km": 475.9851586190069,
      "semi_major_axis_km": 6853.312182143487,
      "eccentricity": 9.481e-05,
      "inclination_deg": 53.1586,
      "raan_deg": 253.8792,
      "arg_perigee_deg": 82.1813,
      "mean_anomaly_deg": 277.9296,
      "mean_motion_rev_day": 15.30213359
    },
    {
      "epoch": "2026-04-27T17:47:24.476928Z",
      "apogee_km": 475.76988753840124,
      "perigee_km": 474.6130456932369,
      "latitude_deg": -3.1712948892865796e-05,
      "longitude_deg": 126.44427250008677,
      "height_km": 476.1092758258572,
      "semi_major_axis_km": 6853.328466615819,
      "eccentricity": 8.44e-05,
      "inclination_deg": 53.1602,
      "raan_deg": 249.023,
      "arg_perigee_deg": 91.8956,
      "mean_anomaly_deg": 268.2141,
      "mean_motion_rev_day": 15.30207905
    },
    {
      "epoch": "2026-04-28T14:10:06.278016Z",
      "apogee_km": 475.890395023921,
      "perigee_km": 474.441606769532,
      "latitude_deg": -8.753341514863582e-06,
      "longitude_deg": 175.99191289385985,
      "height_km": 476.26568380338756,
      "semi_major_axis_km": 6853.303000896726,
      "eccentricity": 0.0001057,
      "inclination_deg": 53.1586,
      "raan_deg": 245.0817,
      "arg_perigee_deg": 106.1432,
      "mean_anomaly_deg": 253.9685,
      "mean_motion_rev_day": 15.30216434
    },
    {
      "epoch": "2026-04-29T13:40:54.571584Z",
      "apogee_km": 476.05531303618955,
      "perigee_km": 474.3186807353777,
      "latitude_deg": 5.971191393754196e-06,
      "longitude_deg": 177.77463946473947,
      "height_km": 475.54278095543583,
      "semi_major_axis_km": 6853.323996885783,
      "eccentricity": 0.0001267,
      "inclination_deg": 53.1577,
      "raan_deg": 240.5313,
      "arg_perigee_deg": 51.3399,
      "mean_anomaly_deg": 308.7715,
      "mean_motion_rev_day": 15.30209402
    },
    {
      "epoch": "2026-04-30T14:45:45.425376Z",
      "apogee_km": 475.9887646965817,
      "perigee_km": 474.4519678407687,
      "latitude_deg": -1.0816891935792929e-05,
      "longitude_deg": 155.67870442134284,
      "height_km": 475.92828227266483,
      "semi_major_axis_km": 6853.357366268675,
      "eccentricity": 0.00011212,
      "inclination_deg": 53.159,
      "raan_deg": 235.6773,
      "arg_perigee_deg": 75.6606,
      "mean_anomaly_deg": 284.4519,
      "mean_motion_rev_day": 15.30198226
    },
    {
      "epoch": "2026-05-01T18:58:42.493440Z",
      "apogee_km": 475.9418074776968,
      "perigee_km": 474.5434438988714,
      "latitude_deg": -1.9650729196112804e-05,
      "longitude_deg": 85.81942912158442,
      "height_km": 475.91444957726014,
      "semi_major_axis_km": 6853.379625688284,
      "eccentricity": 0.00010202,
      "inclination_deg": 53.1591,
      "raan_deg": 230.2146,
      "arg_perigee_deg": 71.092,
      "mean_anomaly_deg": 289.0191,
      "mean_motion_rev_day": 15.30190771
    },
    {
      "epoch": "2026-05-03T13:18:09.138816Z",
      "apogee_km": 476.06405904683925,
      "perigee_km": 474.37922935774895,
      "latitude_deg": -2.4273819162676804e-05,
      "longitude_deg": 161.0299113826607,
      "height_km": 475.9704057578098,
      "semi_major_axis_km": 6853.358644202294,
      "eccentricity": 0.00012292,
      "inclination_deg": 53.1598,
      "raan_deg": 222.0243,
      "arg_perigee_deg": 79.7861,
      "mean_anomaly_deg": 280.3278,
      "mean_motion_rev_day": 15.30197798
    },
    {
      "epoch": "2026-05-04T12:48:57.436704Z",
      "apogee_km": 476.13063703812077,
      "perigee_km": 474.3501295939359,
      "latitude_deg": -1.5743930612430095e-05,
      "longitude_deg": 162.81291160442225,
      "height_km": 475.65170588319234,
      "semi_major_axis_km": 6853.3773833160285,
      "eccentricity": 0.0001299,
      "inclination_deg": 53.1592,
      "raan_deg": 217.4742,
      "arg_perigee_deg": 56.8421,
      "mean_anomaly_deg": 303.2704,
      "mean_motion_rev_day": 15.30191522
    }
  ]
}